{
  "type": "FeatureCollection",
  "features": [
    {
      "type": "Feature",
      "properties": {
        "norad_id": 35290,
        "name": "COSMOS 2251 DEB",
        "group": "cosmos-2251-debris",
        "lat": -4.867781241609493,
        "lon": -107.40971107289559,
        "alt_km": 630.1892382938522,
        "timestamp": "2025-12-06T18:50:10.565793+00:00",
        "meta_object_name": "COSMOS 2251 DEB",
        "meta_object_id": "1993-036AJU",
        "meta_epoch": "2025-12-05T22:32:12.468480",
        "meta_mean_motion": 14.80062552,
        "meta_eccentricity": 0.00031157,
        "meta_inclination": 74.0062,
        "meta_ra_of_asc_node": 72.8591,
        "meta_arg_of_pericenter": 204.7419,
        "meta_mean_anomaly": 155.3609,
        "meta_ephemeris_type": 0,
        "meta_classification_type": "U",
        "meta_norad_cat_id": 35290,
        "meta_element_set_no": 999,
        "meta_rev_at_epoch": 87857,
        "meta_bstar": 0.0032907713,
        "meta_mean_motion_dot": 0.00024997,
        "meta_mean_motion_ddot": 0,
        "tle_line1": "1 35290U 93036AJU 25339.93903320  .00024997  00000+0  32908-2 0  9995",
        "tle_line2": "2 35290  74.0062  72.8591 0003115 204.7419 155.3609 14.80062552878576"
      },
      "geometry": {
        "type": "Point",
        "coordinates": [
          -107.40971107289559,
          -4.867781241609493
        ]
      }
    },
    {
      "type": "Feature",
      "properties": {
        "norad_id": 35432,
        "name": "COSMOS 2251 DEB",
        "group": "cosmos-2251-debris",
        "lat": -57.95527150616286,
        "lon": -124.67107170641704,
        "alt_km": 511.3714639793998,
        "timestamp": "2025-12-06T18:50:10.565803+00:00",
        "meta_object_name": "COSMOS 2251 DEB",
        "meta_object_id": "1993-036AKA",
        "meta_epoch": "2025-12-05T13:21:29.827872",
        "meta_mean_motion": 15.20593874,
        "meta_eccentricity": 0.00121086,
        "meta_inclination": 74.0213,
        "meta_ra_of_asc_node": 30.6647,
        "meta_arg_of_pericenter": 349.9556,
        "meta_mean_anomaly": 10.1398,
        "meta_ephemeris_type": 0,
        "meta_classification_type": "U",
        "meta_norad_cat_id": 35432,
        "meta_element_set_no": 999,
        "meta_rev_at_epoch": 87394,
        "meta_bstar": 0.0094993617,
        "meta_mean_motion_dot": 0.00214796,
        "meta_mean_motion_ddot": 0,
        "tle_line1": "1 35432U 93036AKA 25339.55659523  .00214796  00000+0  94994-2 0  9995",
        "tle_line2": "2 35432  74.0213  30.6647 0012108 349.9556  10.1398 15.20593874873942"
      },
      "geometry": {
        "type": "Point",
        "coordinates": [
          -124.67107170641704,
          -57.95527150616286
        ]
      }
    },
    {
      "type": "Feature",
      "properties": {
        "norad_id": 35433,
        "name": "COSMOS 2251 DEB",
        "group": "cosmos-2251-debris",
        "lat": 49.00189667910331,
        "lon": 150.12709042156217,
        "alt_km": 768.517437453299,
        "timestamp": "2025-12-06T18:50:10.565813+00:00",
        "meta_object_name": "COSMOS 2251 DEB",
        "meta_object_id": "1993-036AKB",
        "meta_epoch": "2025-12-05T19:38:16.327392",
        "meta_mean_motion": 14.34730306,
        "meta_eccentricity": 0.00254596,
        "meta_inclination": 74.0335,
        "meta_ra_of_asc_node": 351.128,
        "meta_arg_of_pericenter": 48.4343,
        "meta_mean_anomaly": 128.9694,
        "meta_ephemeris_type": 0,
        "meta_classification_type": "U",
        "meta_norad_cat_id": 35433,
        "meta_element_set_no": 999,
        "meta_rev_at_epoch": 86481,
        "meta_bstar": 0.00044039966,
        "meta_mean_motion_dot": 1.226e-05,
        "meta_mean_motion_ddot": 0,
        "tle_line1": "1 35433U 93036AKB 25339.81824453  .00001226  00000+0  44040-3 0  9991",
        "tle_line2": "2 35433  74.0335 351.1280 0025459  48.4343 128.9694 14.34730306864810"
      },
      "geometry": {
        "type": "Point",
        "coordinates": [
          150.12709042156217,
          49.00189667910331
        ]
      }
    },
    {
      "type": "Feature",
      "properties": {
        "norad_id": 35434,
        "name": "COSMOS 2251 DEB",
        "group": "cosmos-2251-debris",
        "lat": -53.089341007466096,
        "lon": 66.76707706383348,
        "alt_km": 781.1493150771294,
        "timestamp": "2025-12-06T18:50:10.565823+00:00",
        "meta_object_name": "COSMOS 2251 DEB",
        "meta_object_id": "1993-036AKC",
        "meta_epoch": "2025-12-06T00:52:57.349632",
        "meta_mean_motion": 14.25656227,
        "meta_eccentricity": 0.00876297,
        "meta_inclination": 74.0405,
        "meta_ra_of_asc_node": 225.7219,
        "meta_arg_of_pericenter": 297.8832,
        "meta_mean_anomaly": 61.3459,
        "meta_ephemeris_type": 0,
        "meta_classification_type": "U",
        "meta_norad_cat_id": 35434,
        "meta_element_set_no": 999,
        "meta_rev_at_epoch": 86022,
        "meta_bstar": 0.0011383466,
        "meta_mean_motion_dot": 2.784e-05,
        "meta_mean_motion_ddot": 0,
        "tle_line1": "1 35434U 93036AKC 25340.03677488  .00002784  00000+0  11383-2 0  9995",
        "tle_line2": "2 35434  74.0405 225.7219 0087629 297.8832  61.3459 14.25656227860226"
      },
      "geometry": {
        "type": "Point",
        "coordinates": [
          66.76707706383348,
          -53.089341007466096
        ]
      }
    },
    {
      "type": "Feature",
      "properties": {
        "norad_id": 35435,
        "name": "COSMOS 2251 DEB",
        "group": "cosmos-2251-debris",
        "lat": 21.553708792988882,
        "lon": 122.28692852177586,
        "alt_km": 640.9075534795966,
        "timestamp": "2025-12-06T18:50:10.565833+00:00",
        "meta_object_name": "COSMOS 2251 DEB",
        "meta_object_id": "1993-036AKD",
        "meta_epoch": "2025-12-05T02:38:39.255648",
        "meta_mean_motion": 14.78072342,
        "meta_eccentricity": 0.00091016,
        "meta_inclination": 74.0102,
        "meta_ra_of_asc_node": 119.0761,
        "meta_arg_of_pericenter": 211.2048,
        "meta_mean_anomaly": 263.7282,
        "meta_ephemeris_type": 0,
        "meta_classification_type": "U",
        "meta_norad_cat_id": 35435,
        "meta_element_set_no": 999,
        "meta_rev_at_epoch": 87426,
        "meta_bstar": 0.0046321505,
        "meta_mean_motion_dot": 0.00033645,
        "meta_mean_motion_ddot": 0,
        "tle_line1": "1 35435U 93036AKD 25339.11017657  .00033645  00000+0  46322-2 0  9990",
        "tle_line2": "2 35435  74.0102 119.0761 0009101 211.2048 263.7282 14.78072342874265"
      },
      "geometry": {
        "type": "Point",
        "coordinates": [
          122.28692852177586,
          21.553708792988882
        ]
      }
    },
    {
      "type": "Feature",
      "properties": {
        "norad_id": 35439,
        "name": "COSMOS 2251 DEB",
        "group": "cosmos-2251-debris",
        "lat": -14.800340582535126,
        "lon": 140.60102553441516,
        "alt_km": 768.0756678403177,
        "timestamp": "2025-12-06T18:50:10.565844+00:00",
        "meta_object_name": "COSMOS 2251 DEB",
        "meta_object_id": "1993-036AKH",
        "meta_epoch": "2025-12-06T05:59:35.063232",
        "meta_mean_motion": 13.92766526,
        "meta_eccentricity": 0.02419007,
        "meta_inclination": 74.0202,
        "meta_ra_of_asc_node": 145.8594,
        "meta_arg_of_pericenter": 316.5639,
        "meta_mean_anomaly": 224.7042,
        "meta_ephemeris_type": 0,
        "meta_classification_type": "U",
        "meta_norad_cat_id": 35439,
        "meta_element_set_no": 999,
        "meta_rev_at_epoch": 83870,
        "meta_bstar": 0.0024796152,
        "meta_mean_motion_dot": 4.056e-05,
        "meta_mean_motion_ddot": 0,
        "tle_line1": "1 35439U 93036AKH 25340.24971138  .00004056  00000+0  24796-2 0  9998",
        "tle_line2": "2 35439  74.0202 145.8594 0241900 316.5639 224.7042 13.92766526838700"
      },
      "geometry": {
        "type": "Point",
        "coordinates": [
          140.60102553441516,
          -14.800340582535126
        ]
      }
    },
    {
      "type": "Feature",
      "properties": {
        "norad_id": 35440,
        "name": "COSMOS 2251 DEB",
        "group": "cosmos-2251-debris",
        "lat": -43.81653339132686,
        "lon": 55.130428657175955,
        "alt_km": 705.7312623902217,
        "timestamp": "2025-12-06T18:50:10.565854+00:00",
        "meta_object_name": "COSMOS 2251 DEB",
        "meta_object_id": "1993-036AKJ",
        "meta_epoch": "2025-12-04T00:25:11.600832",
        "meta_mean_motion": 14.68734875,
        "meta_eccentricity": 0.0068957,
        "meta_inclination": 74.0159,
        "meta_ra_of_asc_node": 224.5259,
        "meta_arg_of_pericenter": 7.4237,
        "meta_mean_anomaly": 352.7936,
        "meta_ephemeris_type": 0,
        "meta_classification_type": "U",
        "meta_norad_cat_id": 35440,
        "meta_element_set_no": 999,
        "meta_rev_at_epoch": 68637,
        "meta_bstar": 0.0010432053,
        "meta_mean_motion_dot": 6.276e-05,
        "meta_mean_motion_ddot": 0,
        "tle_line1": "1 35440U 93036AKJ 25338.01749538  .00006276  00000+0  10432-2 0  9997",
        "tle_line2": "2 35440  74.0159 224.5259 0068957   7.4237 352.7936 14.68734875686379"
      },
      "geometry": {
        "type": "Point",
        "coordinates": [
          55.130428657175955,
          -43.81653339132686
        ]
      }
    }
  ]
}